ONEWEB-0199             
1 48234U 21031AA  24363.39225388  .00000267  00000+0  68443-3 0  9998
2 48234  87.8994  36.2348 0001661  92.9700 267.1620 13.14502700177872
ONEWEB-0203             
1 48235U 21031AB  24364.37226030 -.00000008  00000+0 -55918-4 0  9992
2 48235  87.8993  36.0417 0001398  96.7475 263.3813 13.14501604178016
ONEWEB-0197             
1 48236U 21031AC  24363.81484858 -.00000115  00000+0 -34492-3 0  9997
2 48236  87.8995  36.1626 0002053  89.1258 271.0106 13.14504768177852
ONEWEB-0194             
1 48237U 21031AD  24364.09792309  .00000228  00000+0  58038-3 0  9997
2 48237  87.8995  36.1013 0001512  92.2422 267.8881 13.14504430178063
ONEWEB-0193             
1 48238U 21031AE  24363.80930819 -.00000072  00000+0 -22911-3 0  9996
2 48238  87.8995  36.1665 0001683  99.2578 260.8742 13.14502784177973
ONEWEB-0191             
1 48239U 21031AF  24364.35322008 -.00000166  00000+0 -48219-3 0  9996
2 48239  87.8990  36.0357 0001752  99.5049 260.6278 13.14500866177903
ONEWEB-0195             
1 48240U 21031AG  24364.48247620  .00000176  00000+0  43892-3 0  9999
2 48240  87.8993  36.0088 0001913 109.7088 250.4249 13.14501495177909
ONEWEB-0201             
1 48241U 21031AH  24364.39526280  .00000247  00000+0  63052-3 0  9991
2 48241  87.8994  36.0672 0001905 100.9336 259.2008 13.14503654178124
